{
  "type": "FeatureCollection",
  "features": [
    {
      "type": "Feature",
      "properties": {
        "norad_id": 66620,
        "name": "STARLINK-35936",
        "group": "last-30-days",
        "lat": -2.7196050978918187,
        "lon": 41.03123057107541,
        "alt_km": 337.81991420781196,
        "timestamp": "2025-12-06T05:40:08.012636+00:00",
        "meta_object_name": "STARLINK-35936",
        "meta_object_id": "2025-271D",
        "meta_epoch": "2025-12-05T04:34:54.500448",
        "meta_mean_motion": 15.78982878,
        "meta_eccentricity": 4.359e-05,
        "meta_inclination": 53.1557,
        "meta_ra_of_asc_node": 224.2119,
        "meta_arg_of_pericenter": 299.2433,
        "meta_mean_anomaly": 60.8545,
        "meta_ephemeris_type": 0,
        "meta_classification_type": "U",
        "meta_norad_cat_id": 66620,
        "meta_element_set_no": 999,
        "meta_rev_at_epoch": 302,
        "meta_bstar": -0.0029583165,
        "meta_mean_motion_dot": -0.00505786,
        "meta_mean_motion_ddot": 0,
        "tle_line1": "1 66620U 25271D   25339.19090857 -.00505786  00000+0 -29583-2 0  9999",
        "tle_line2": "2 66620  53.1557 224.2119 0000435 299.2433  60.8545 15.78982878  3029"
      },
      "geometry": {
        "type": "Point",
        "coordinates": [
          41.03123057107541,
          -2.7196050978918187
        ]
      }
    },
    {
      "type": "Feature",
      "properties": {
        "norad_id": 66621,
        "name": "STARLINK-35847",
        "group": "last-30-days",
        "lat": -50.846129952012426,
        "lon": 105.89613666120931,
        "alt_km": 343.22341621342093,
        "timestamp": "2025-12-06T05:40:08.012647+00:00",
        "meta_object_name": "STARLINK-35847",
        "meta_object_id": "2025-271E",
        "meta_epoch": "2025-12-04T05:29:14.400096",
        "meta_mean_motion": 15.80119551,
        "meta_eccentricity": 8.3e-05,
        "meta_inclination": 53.1563,
        "meta_ra_of_asc_node": 228.8686,
        "meta_arg_of_pericenter": 162.0892,
        "meta_mean_anomaly": 198.016,
        "meta_ephemeris_type": 0,
        "meta_classification_type": "U",
        "meta_norad_cat_id": 66621,
        "meta_element_set_no": 999,
        "meta_rev_at_epoch": 287,
        "meta_bstar": -0.0041389,
        "meta_mean_motion_dot": -0.00726477,
        "meta_mean_motion_ddot": 0,
        "tle_line1": "1 66621U 25271E   25338.22863889 -.00726477  00000+0 -41389-2 0  9996",
        "tle_line2": "2 66621  53.1563 228.8686 0000830 162.0892 198.0160 15.80119551  2873"
      },
      "geometry": {
        "type": "Point",
        "coordinates": [
          105.89613666120931,
          -50.846129952012426
        ]
      }
    },
    {
      "type": "Feature",
      "properties": {
        "norad_id": 66622,
        "name": "STARLINK-35950",
        "group": "last-30-days",
        "lat": -10.241639147986444,
        "lon": 46.75702261445756,
        "alt_km": 340.827589413494,
        "timestamp": "2025-12-06T05:40:08.012657+00:00",
        "meta_object_name": "STARLINK-35950",
        "meta_object_id": "2025-271F",
        "meta_epoch": "2025-12-05T04:32:11.522400",
        "meta_mean_motion": 15.78888049,
        "meta_eccentricity": 8.156e-05,
        "meta_inclination": 53.1561,
        "meta_ra_of_asc_node": 224.1992,
        "meta_arg_of_pericenter": 24.5473,
        "meta_mean_anomaly": 335.5588,
        "meta_ephemeris_type": 0,
        "meta_classification_type": "U",
        "meta_norad_cat_id": 66622,
        "meta_element_set_no": 999,
        "meta_rev_at_epoch": 302,
        "meta_bstar": -0.0043392119,
        "meta_mean_motion_dot": -0.00720349,
        "meta_mean_motion_ddot": 0,
        "tle_line1": "1 66622U 25271F   25339.18902225 -.00720349  00000+0 -43392-2 0  9999",
        "tle_line2": "2 66622  53.1561 224.1992 0000815  24.5473 335.5588 15.78888049  3023"
      },
      "geometry": {
        "type": "Point",
        "coordinates": [
          46.75702261445756,
          -10.241639147986444
        ]
      }
    },
    {
      "type": "Feature",
      "properties": {
        "norad_id": 66623,
        "name": "STARLINK-35920",
        "group": "last-30-days",
        "lat": -22.613656370268075,
        "lon": 57.1362529218527,
        "alt_km": 333.83719730917437,
        "timestamp": "2025-12-06T05:40:08.012669+00:00",
        "meta_object_name": "STARLINK-35920",
        "meta_object_id": "2025-271G",
        "meta_epoch": "2025-12-04T10:18:25.884864",
        "meta_mean_motion": 15.81474448,
        "meta_eccentricity": 0.000142,
        "meta_inclination": 53.1567,
        "meta_ra_of_asc_node": 227.9949,
        "meta_arg_of_pericenter": 2.2541,
        "meta_mean_anomaly": 357.8488,
        "meta_ephemeris_type": 0,
        "meta_classification_type": "U",
        "meta_norad_cat_id": 66623,
        "meta_element_set_no": 999,
        "meta_rev_at_epoch": 290,
        "meta_bstar": -0.001618,
        "meta_mean_motion_dot": -0.00317341,
        "meta_mean_motion_ddot": 0,
        "tle_line1": "1 66623U 25271G   25338.42946626 -.00317341  00000+0 -16180-2 0  9998",
        "tle_line2": "2 66623  53.1567 227.9949 0001420   2.2541 357.8488 15.81474448  2905"
      },
      "geometry": {
        "type": "Point",
        "coordinates": [
          57.1362529218527,
          -22.613656370268075
        ]
      }
    },
    {
      "type": "Feature",
      "properties": {
        "norad_id": 66624,
        "name": "STARLINK-35927",
        "group": "last-30-days",
        "lat": -11.98107125865907,
        "lon": 48.12284157613727,
        "alt_km": 339.00924228382246,
        "timestamp": "2025-12-06T05:40:08.012679+00:00",
        "meta_object_name": "STARLINK-35927",
        "meta_object_id": "2025-271H",
        "meta_epoch": "2025-12-05T04:31:39.458496",
        "meta_mean_motion": 15.78996813,
        "meta_eccentricity": 0.00022332,
        "meta_inclination": 53.1562,
        "meta_ra_of_asc_node": 224.1974,
        "meta_arg_of_pericenter": 213.08,
        "meta_mean_anomaly": 147.0082,
        "meta_ephemeris_type": 0,
        "meta_classification_type": "U",
        "meta_norad_cat_id": 66624,
        "meta_element_set_no": 999,
        "meta_rev_at_epoch": 302,
        "meta_bstar": -0.0047492104,
        "meta_mean_motion_dot": -0.00786598,
        "meta_mean_motion_ddot": 0,
        "tle_line1": "1 66624U 25271H   25339.18865114 -.00786598  00000+0 -47492-2 0  9999",
        "tle_line2": "2 66624  53.1562 224.1974 0002233 213.0800 147.0082 15.78996813  3025"
      },
      "geometry": {
        "type": "Point",
        "coordinates": [
          48.12284157613727,
          -11.98107125865907
        ]
      }
    },
    {
      "type": "Feature",
      "properties": {
        "norad_id": 66625,
        "name": "STARLINK-35929",
        "group": "last-30-days",
        "lat": -18.217145652069846,
        "lon": 53.23588741306374,
        "alt_km": 337.6824255505271,
        "timestamp": "2025-12-06T05:40:08.012690+00:00",
        "meta_object_name": "STARLINK-35929",
        "meta_object_id": "2025-271J",
        "meta_epoch": "2025-12-04T19:24:13.592160",
        "meta_mean_motion": 15.80096982,
        "meta_eccentricity": 0.00025493,
        "meta_inclination": 53.1566,
        "meta_ra_of_asc_node": 226.092,
        "meta_arg_of_pericenter": 320.0589,
        "meta_mean_anomaly": 40.0246,
        "meta_ephemeris_type": 0,
        "meta_classification_type": "U",
        "meta_norad_cat_id": 66625,
        "meta_element_set_no": 999,
        "meta_rev_at_epoch": 296,
        "meta_bstar": -0.0023514157,
        "meta_mean_motion_dot": -0.00427227,
        "meta_mean_motion_ddot": 0,
        "tle_line1": "1 66625U 25271J   25338.80849065 -.00427227  00000+0 -23514-2 0  9995",
        "tle_line2": "2 66625  53.1566 226.0920 0002549 320.0589  40.0246 15.80096982  2962"
      },
      "geometry": {
        "type": "Point",
        "coordinates": [
          53.23588741306374,
          -18.217145652069846
        ]
      }
    },
    {
      "type": "Feature",
      "properties": {
        "norad_id": 66627,
        "name": "STARLINK-35904",
        "group": "last-30-days",
        "lat": -34.70677067801151,
        "lon": 70.19145783530568,
        "alt_km": 318.4854991584434,
        "timestamp": "2025-12-06T05:40:08.012729+00:00",
        "meta_object_name": "STARLINK-35904",
        "meta_object_id": "2025-271L",
        "meta_epoch": "2025-12-04T20:53:36.822048",
        "meta_mean_motion": 15.81648134,
        "meta_eccentricity": 0.0009708,
        "meta_inclination": 53.1559,
        "meta_ra_of_asc_node": 225.7674,
        "meta_arg_of_pericenter": 244.3636,
        "meta_mean_anomaly": 115.6385,
        "meta_ephemeris_type": 0,
        "meta_classification_type": "U",
        "meta_norad_cat_id": 66627,
        "meta_element_set_no": 999,
        "meta_rev_at_epoch": 293,
        "meta_bstar": 0.0034623,
        "meta_mean_motion_dot": 0.00775594,
        "meta_mean_motion_ddot": 0,
        "tle_line1": "1 66627U 25271L   25338.87056507  .00775594  00000+0  34623-2 0  9999",
        "tle_line2": "2 66627  53.1559 225.7674 0009708 244.3636 115.6385 15.81648134  2936"
      },
      "geometry": {
        "type": "Point",
        "coordinates": [
          70.19145783530568,
          -34.70677067801151
        ]
      }
    }
  ]
}